{
  "type": "FeatureCollection",
  "features": [
    {
      "type": "Feature",
      "properties": {
        "norad_id": 66912,
        "name": "1998-067XY",
        "group": "last-30-days",
        "lat": -24.049499300199564,
        "lon": 58.75051417486442,
        "alt_km": 410.93632409099337,
        "timestamp": "2025-12-25T09:48:51.006690+00:00",
        "meta_object_name": "1998-067XY",
        "meta_object_id": "1998-067XY",
        "meta_epoch": "2025-12-24T12:19:04.376640",
        "meta_mean_motion": 15.52269671,
        "meta_eccentricity": 0.00038943,
        "meta_inclination": 51.6319,
        "meta_ra_of_asc_node": 83.9109,
        "meta_arg_of_pericenter": 289.4763,
        "meta_mean_anomaly": 70.5806,
        "meta_ephemeris_type": 0,
        "meta_classification_type": "U",
        "meta_norad_cat_id": 66912,
        "meta_element_set_no": 999,
        "meta_rev_at_epoch": 343,
        "meta_bstar": 0.00087040154,
        "meta_mean_motion_dot": 0.00053773,
        "meta_mean_motion_ddot": 0,
        "tle_line1": "1 66912U 98067XY  25358.51324510  .00053773  00000+0  87040-3 0  9994",
        "tle_line2": "2 66912  51.6319  83.9109 0003894 289.4763  70.5806 15.52269671  3434"
      },
      "geometry": {
        "type": "Point",
        "coordinates": [
          58.75051417486442,
          -24.049499300199564
        ]
      }
    },
    {
      "type": "Feature",
      "properties": {
        "norad_id": 66913,
        "name": "2025-284A",
        "group": "last-30-days",
        "lat": -71.59124336156322,
        "lon": -35.585031508833296,
        "alt_km": 537.3834521858817,
        "timestamp": "2025-12-25T09:48:51.006700+00:00",
        "meta_object_name": "2025-284A",
        "meta_object_id": "2025-284A",
        "meta_epoch": "2025-12-23T02:34:46.438752",
        "meta_mean_motion": 15.08893564,
        "meta_eccentricity": 0.0013475,
        "meta_inclination": 80.4035,
        "meta_ra_of_asc_node": 116.7336,
        "meta_arg_of_pericenter": 259.6514,
        "meta_mean_anomaly": 100.3189,
        "meta_ephemeris_type": 0,
        "meta_classification_type": "U",
        "meta_norad_cat_id": 66913,
        "meta_element_set_no": 999,
        "meta_rev_at_epoch": 269,
        "meta_bstar": 0.00055263602,
        "meta_mean_motion_dot": 8.748e-05,
        "meta_mean_motion_ddot": 0,
        "tle_line1": "1 66913U 25284A   25357.10748193  .00008748  00000+0  55264-3 0  9992",
        "tle_line2": "2 66913  80.4035 116.7336 0013475 259.6514 100.3189 15.08893564  2694"
      },
      "geometry": {
        "type": "Point",
        "coordinates": [
          -35.585031508833296,
          -71.59124336156322
        ]
      }
    },
    {
      "type": "Feature",
      "properties": {
        "norad_id": 66914,
        "name": "2025-284B",
        "group": "last-30-days",
        "lat": -2.401870280438361,
        "lon": -65.88741046509648,
        "alt_km": 506.58648347726194,
        "timestamp": "2025-12-25T09:48:51.006710+00:00",
        "meta_object_name": "2025-284B",
        "meta_object_id": "2025-284B",
        "meta_epoch": "2025-12-16T06:51:11.417184",
        "meta_mean_motion": 15.18985981,
        "meta_eccentricity": 0.00081793,
        "meta_inclination": 80.4045,
        "meta_ra_of_asc_node": 125.2713,
        "meta_arg_of_pericenter": 234.9626,
        "meta_mean_anomaly": 125.0834,
        "meta_ephemeris_type": 0,
        "meta_classification_type": "U",
        "meta_norad_cat_id": 66914,
        "meta_element_set_no": 999,
        "meta_rev_at_epoch": 166,
        "meta_bstar": 0.00038444995,
        "meta_mean_motion_dot": 8.068e-05,
        "meta_mean_motion_ddot": 0,
        "tle_line1": "1 66914U 25284B   25350.28554881  .00008068  00000+0  38445-3 0  9991",
        "tle_line2": "2 66914  80.4045 125.2713 0008179 234.9626 125.0834 15.18985981  1668"
      },
      "geometry": {
        "type": "Point",
        "coordinates": [
          -65.88741046509648,
          -2.401870280438361
        ]
      }
    },
    {
      "type": "Feature",
      "properties": {
        "norad_id": 66915,
        "name": "HULIANWANG DIGUI-105",
        "group": "last-30-days",
        "lat": 5.687716328790443,
        "lon": -119.11338746325706,
        "alt_km": 885.9264197176044,
        "timestamp": "2025-12-25T09:48:51.006722+00:00",
        "meta_object_name": "HULIANWANG DIGUI-105",
        "meta_object_id": "2025-285A",
        "meta_epoch": "2025-12-25T05:34:42.009888",
        "meta_mean_motion": 14.03719893,
        "meta_eccentricity": 0.0008122,
        "meta_inclination": 50.0055,
        "meta_ra_of_asc_node": 66.4015,
        "meta_arg_of_pericenter": 324.4204,
        "meta_mean_anomaly": 35.6158,
        "meta_ephemeris_type": 0,
        "meta_classification_type": "U",
        "meta_norad_cat_id": 66915,
        "meta_element_set_no": 999,
        "meta_rev_at_epoch": 266,
        "meta_bstar": 0.00012131,
        "meta_mean_motion_dot": 4.1e-07,
        "meta_mean_motion_ddot": 0,
        "tle_line1": "1 66915U 25285A   25359.23243067  .00000041  00000+0  12131-3 0  9995",
        "tle_line2": "2 66915  50.0055  66.4015 0008122 324.4204  35.6158 14.03719893  2665"
      },
      "geometry": {
        "type": "Point",
        "coordinates": [
          -119.11338746325706,
          5.687716328790443
        ]
      }
    },
    {
      "type": "Feature",
      "properties": {
        "norad_id": 66916,
        "name": "HULIANWANG DIGUI-106",
        "group": "last-30-days",
        "lat": -5.325000959389688,
        "lon": -109.85442153216502,
        "alt_km": 885.5039752734983,
        "timestamp": "2025-12-25T09:48:51.006736+00:00",
        "meta_object_name": "HULIANWANG DIGUI-106",
        "meta_object_id": "2025-285B",
        "meta_epoch": "2025-12-25T05:30:35.666208",
        "meta_mean_motion": 14.03704669,
        "meta_eccentricity": 0.0006907,
        "meta_inclination": 50.0065,
        "meta_ra_of_asc_node": 66.3886,
        "meta_arg_of_pericenter": 317.7053,
        "meta_mean_anomaly": 42.3318,
        "meta_ephemeris_type": 0,
        "meta_classification_type": "U",
        "meta_norad_cat_id": 66916,
        "meta_element_set_no": 999,
        "meta_rev_at_epoch": 266,
        "meta_bstar": 0.00010828,
        "meta_mean_motion_dot": 2e-07,
        "meta_mean_motion_ddot": 0,
        "tle_line1": "1 66916U 25285B   25359.22957947  .00000020  00000+0  10828-3 0  9992",
        "tle_line2": "2 66916  50.0065  66.3886 0006907 317.7053  42.3318 14.03704669  2666"
      },
      "geometry": {
        "type": "Point",
        "coordinates": [
          -109.85442153216502,
          -5.325000959389688
        ]
      }
    },
    {
      "type": "Feature",
      "properties": {
        "norad_id": 66917,
        "name": "HULIANWANG DIGUI-107",
        "group": "last-30-days",
        "lat": -11.90511278129445,
        "lon": -104.17125449675412,
        "alt_km": 886.7402922454403,
        "timestamp": "2025-12-25T09:48:51.006746+00:00",
        "meta_object_name": "HULIANWANG DIGUI-107",
        "meta_object_id": "2025-285C",
        "meta_epoch": "2025-12-25T05:28:07.149792",
        "meta_mean_motion": 14.0366476,
        "meta_eccentricity": 0.0007537,
        "meta_inclination": 50.003,
        "meta_ra_of_asc_node": 66.3714,
        "meta_arg_of_pericenter": 327.0798,
        "meta_mean_anomaly": 32.9636,
        "meta_ephemeris_type": 0,
        "meta_classification_type": "U",
        "meta_norad_cat_id": 66917,
        "meta_element_set_no": 999,
        "meta_rev_at_epoch": 266,
        "meta_bstar": 0.00012129,
        "meta_mean_motion_dot": 4e-07,
        "meta_mean_motion_ddot": 0,
        "tle_line1": "1 66917U 25285C   25359.22786053  .00000040  00000+0  12129-3 0  9999",
        "tle_line2": "2 66917  50.0030  66.3714 0007537 327.0798  32.9636 14.03664760  2664"
      },
      "geometry": {
        "type": "Point",
        "coordinates": [
          -104.17125449675412,
          -11.90511278129445
        ]
      }
    },
    {
      "type": "Feature",
      "properties": {
        "norad_id": 66918,
        "name": "HULIANWANG DIGUI-108",
        "group": "last-30-days",
        "lat": -14.093309378894745,
        "lon": -102.20046323103276,
        "alt_km": 886.206652990777,
        "timestamp": "2025-12-25T09:48:51.006756+00:00",
        "meta_object_name": "HULIANWANG DIGUI-108",
        "meta_object_id": "2025-285D",
        "meta_epoch": "2025-12-25T05:27:16.697376",
        "meta_mean_motion": 14.03603814,
        "meta_eccentricity": 0.0006679,
        "meta_inclination": 50.0063,
        "meta_ra_of_asc_node": 66.3731,
        "meta_arg_of_pericenter": 321.6771,
        "meta_mean_anomaly": 38.3658,
        "meta_ephemeris_type": 0,
        "meta_classification_type": "U",
        "meta_norad_cat_id": 66918,
        "meta_element_set_no": 999,
        "meta_rev_at_epoch": 266,
        "meta_bstar": 0.0001138,
        "meta_mean_motion_dot": 2.8e-07,
        "meta_mean_motion_ddot": 0,
        "tle_line1": "1 66918U 25285D   25359.22727659  .00000028  00000+0  11380-3 0  9991",
        "tle_line2": "2 66918  50.0063  66.3731 0006679 321.6771  38.3658 14.03603814  2664"
      },
      "geometry": {
        "type": "Point",
        "coordinates": [
          -102.20046323103276,
          -14.093309378894745
        ]
      }
    }
  ]
}